<?xml version="1.0" encoding="UTF-8"?>
<ndm xmlns:xsi="http://www.w3.org/2001/XMLSchema-instance" xsi:noNamespaceSchemaLocation="https://sanaregistry.org/r/ndmxml_unqualified/ndmxml-2.0.0-master-2.0.xsd">
<omm id="CCSDS_OMM_VERS" version="2.0">
<header><CREATION_DATE/><ORIGINATOR/></header><body><segment><metadata><OBJECT_NAME>METEOR PRIRODA</OBJECT_NAME><OBJECT_ID>1981-065A</OBJECT_ID><CENTER_NAME>EARTH</CENTER_NAME><REF_FRAME>TEME</REF_FRAME><TIME_SYSTEM>UTC</TIME_SYSTEM><MEAN_ELEMENT_THEORY>SGP4</MEAN_ELEMENT_THEORY></metadata><data><meanElements><EPOCH>2022-06-04T22:14:42.000000</EPOCH><MEAN_MOTION>15.24105089</MEAN_MOTION><ECCENTRICITY>.0013634</ECCENTRICITY><INCLINATION>97.5835</INCLINATION><RA_OF_ASC_NODE>160.6589</RA_OF_ASC_NODE><ARG_OF_PERICENTER>172.8546</ARG_OF_PERICENTER><MEAN_ANOMALY>187.2888</MEAN_ANOMALY></meanElements><tleParameters><EPHEMERIS_TYPE>0</EPHEMERIS_TYPE><CLASSIFICATION_TYPE>U</CLASSIFICATION_TYPE><NORAD_CAT_ID>12585</NORAD_CAT_ID><ELEMENT_SET_NO>999</ELEMENT_SET_NO><REV_AT_EPOCH>23226</REV_AT_EPOCH><BSTAR>.10778E-3</BSTAR><MEAN_MOTION_DOT>.255E-4</MEAN_MOTION_DOT><MEAN_MOTION_DDOT>0</MEAN_MOTION_DDOT></tleParameters></data></segment></body></omm>
<omm id="CCSDS_OMM_VERS" version="2.0">
<header><CREATION_DATE/><ORIGINATOR/></header><body><segment><metadata><OBJECT_NAME>SL-3 R/B</OBJECT_NAME><OBJECT_ID>1981-103B</OBJECT_ID><CENTER_NAME>EARTH</CENTER_NAME><REF_FRAME>TEME</REF_FRAME><TIME_SYSTEM>UTC</TIME_SYSTEM><MEAN_ELEMENT_THEORY>SGP4</MEAN_ELEMENT_THEORY></metadata><data><meanElements><EPOCH>2022-06-04T20:04:35.812704</EPOCH><MEAN_MOTION>15.06735674</MEAN_MOTION><ECCENTRICITY>.0026596</ECCENTRICITY><INCLINATION>81.1756</INCLINATION><RA_OF_ASC_NODE>2.6449</RA_OF_ASC_NODE><ARG_OF_PERICENTER>210.7689</ARG_OF_PERICENTER><MEAN_ANOMALY>149.1977</MEAN_ANOMALY></meanElements><tleParameters><EPHEMERIS_TYPE>0</EPHEMERIS_TYPE><CLASSIFICATION_TYPE>U</CLASSIFICATION_TYPE><NORAD_CAT_ID>12904</NORAD_CAT_ID><ELEMENT_SET_NO>999</ELEMENT_SET_NO><REV_AT_EPOCH>76552</REV_AT_EPOCH><BSTAR>.60676E-4</BSTAR><MEAN_MOTION_DOT>.932E-5</MEAN_MOTION_DOT><MEAN_MOTION_DDOT>0</MEAN_MOTION_DDOT></tleParameters></data></segment></body></omm>
<omm id="CCSDS_OMM_VERS" version="2.0">
<header><CREATION_DATE/><ORIGINATOR/></header><body><segment><metadata><OBJECT_NAME>SL-3 R/B</OBJECT_NAME><OBJECT_ID>1982-013B</OBJECT_ID><CENTER_NAME>EARTH</CENTER_NAME><REF_FRAME>TEME</REF_FRAME><TIME_SYSTEM>UTC</TIME_SYSTEM><MEAN_ELEMENT_THEORY>SGP4</MEAN_ELEMENT_THEORY></metadata><data><meanElements><EPOCH>2022-06-05T04:18:33.052608</EPOCH><MEAN_MOTION>15.08368802</MEAN_MOTION><ECCENTRICITY>.0020453</ECCENTRICITY><INCLINATION>81.2042</INCLINATION><RA_OF_ASC_NODE>310.0365</RA_OF_ASC_NODE><ARG_OF_PERICENTER>83.7072</ARG_OF_PERICENTER><MEAN_ANOMALY>276.6481</MEAN_ANOMALY></meanElements><tleParameters><EPHEMERIS_TYPE>0</EPHEMERIS_TYPE><CLASSIFICATION_TYPE>U</CLASSIFICATION_TYPE><NORAD_CAT_ID>13068</NORAD_CAT_ID><ELEMENT_SET_NO>999</ELEMENT_SET_NO><REV_AT_EPOCH>19677</REV_AT_EPOCH><BSTAR>.10571E-3</BSTAR><MEAN_MOTION_DOT>.1673E-4</MEAN_MOTION_DOT><MEAN_MOTION_DDOT>0</MEAN_MOTION_DDOT></tleParameters></data></segment></body></omm>
<omm id="CCSDS_OMM_VERS" version="2.0">
<header><CREATION_DATE/><ORIGINATOR/></header><body><segment><metadata><OBJECT_NAME>SL-3 R/B</OBJECT_NAME><OBJECT_ID>1982-039B</OBJECT_ID><CENTER_NAME>EARTH</CENTER_NAME><REF_FRAME>TEME</REF_FRAME><TIME_SYSTEM>UTC</TIME_SYSTEM><MEAN_ELEMENT_THEORY>SGP4</MEAN_ELEMENT_THEORY></metadata><data><meanElements><EPOCH>2022-06-04T20:45:53.503776</EPOCH><MEAN_MOTION>14.99484185</MEAN_MOTION><ECCENTRICITY>.0040198</ECCENTRICITY><INCLINATION>81.1824</INCLINATION><RA_OF_ASC_NODE>341.5750</RA_OF_ASC_NODE><ARG_OF_PERICENTER>142.4043</ARG_OF_PERICENTER><MEAN_ANOMALY>218.0000</MEAN_ANOMALY></meanElements><tleParameters><EPHEMERIS_TYPE>0</EPHEMERIS_TYPE><CLASSIFICATION_TYPE>U</CLASSIFICATION_TYPE><NORAD_CAT_ID>13154</NORAD_CAT_ID><ELEMENT_SET_NO>999</ELEMENT_SET_NO><REV_AT_EPOCH>17512</REV_AT_EPOCH><BSTAR>.76285E-4</BSTAR><MEAN_MOTION_DOT>.974E-5</MEAN_MOTION_DOT><MEAN_MOTION_DDOT>0</MEAN_MOTION_DDOT></tleParameters></data></segment></body></omm>
<omm id="CCSDS_OMM_VERS" version="2.0">
<header><CREATION_DATE/><ORIGINATOR/></header><body><segment><metadata><OBJECT_NAME>SL-3 R/B</OBJECT_NAME><OBJECT_ID>1982-079B</OBJECT_ID><CENTER_NAME>EARTH</CENTER_NAME><REF_FRAME>TEME</REF_FRAME><TIME_SYSTEM>UTC</TIME_SYSTEM><MEAN_ELEMENT_THEORY>SGP4</MEAN_ELEMENT_THEORY></metadata><data><meanElements><EPOCH>2022-06-04T20:44:42.171936</EPOCH><MEAN_MOTION>15.08210817</MEAN_MOTION><ECCENTRICITY>.0035198</ECCENTRICITY><INCLINATION>81.1656</INCLINATION><RA_OF_ASC_NODE>350.1806</RA_OF_ASC_NODE><ARG_OF_PERICENTER>56.6602</ARG_OF_PERICENTER><MEAN_ANOMALY>303.7983</MEAN_ANOMALY></meanElements><tleParameters><EPHEMERIS_TYPE>0</EPHEMERIS_TYPE><CLASSIFICATION_TYPE>U</CLASSIFICATION_TYPE><NORAD_CAT_ID>13403</NORAD_CAT_ID><ELEMENT_SET_NO>999</ELEMENT_SET_NO><REV_AT_EPOCH>16968</REV_AT_EPOCH><BSTAR>.54579E-4</BSTAR><MEAN_MOTION_DOT>.881E-5</MEAN_MOTION_DOT><MEAN_MOTION_DDOT>0</MEAN_MOTION_DDOT></tleParameters></data></segment></body></omm>
<omm id="CCSDS_OMM_VERS" version="2.0">
<header><CREATION_DATE/><ORIGINATOR/></header><body><segment><metadata><OBJECT_NAME>COSMOS 1408</OBJECT_NAME><OBJECT_ID>1982-092A</OBJECT_ID><CENTER_NAME>EARTH</CENTER_NAME><REF_FRAME>TEME</REF_FRAME><TIME_SYSTEM>UTC</TIME_SYSTEM><MEAN_ELEMENT_THEORY>SGP4</MEAN_ELEMENT_THEORY></metadata><data><meanElements><EPOCH>2022-06-05T01:48:31.879008</EPOCH><MEAN_MOTION>15.33119349</MEAN_MOTION><ECCENTRICITY>.0027261</ECCENTRICITY><INCLINATION>82.5724</INCLINATION><RA_OF_ASC_NODE>281.1584</RA_OF_ASC_NODE><ARG_OF_PERICENTER>148.0040</ARG_OF_PERICENTER><MEAN_ANOMALY>212.2865</MEAN_ANOMALY></meanElements><tleParameters><EPHEMERIS_TYPE>0</EPHEMERIS_TYPE><CLASSIFICATION_TYPE>U</CLASSIFICATION_TYPE><NORAD_CAT_ID>13552</NORAD_CAT_ID><ELEMENT_SET_NO>999</ELEMENT_SET_NO><REV_AT_EPOCH>17406</REV_AT_EPOCH><BSTAR>.12675E-3</BSTAR><MEAN_MOTION_DOT>.4139E-4</MEAN_MOTION_DOT><MEAN_MOTION_DDOT>0</MEAN_MOTION_DDOT></tleParameters></data></segment></body></omm>
<omm id="CCSDS_OMM_VERS" version="2.0">
<header><CREATION_DATE/><ORIGINATOR/></header><body><segment><metadata><OBJECT_NAME>SL-14 R/B</OBJECT_NAME><OBJECT_ID>1982-092B</OBJECT_ID><CENTER_NAME>EARTH</CENTER_NAME><REF_FRAME>TEME</REF_FRAME><TIME_SYSTEM>UTC</TIME_SYSTEM><MEAN_ELEMENT_THEORY>SGP4</MEAN_ELEMENT_THEORY></metadata><data><meanElements><EPOCH>2022-06-04T18:59:54.022272</EPOCH><MEAN_MOTION>14.84409835</MEAN_MOTION><ECCENTRICITY>.0021619</ECCENTRICITY><INCLINATION>82.5680</INCLINATION><RA_OF_ASC_NODE>344.1171</RA_OF_ASC_NODE><ARG_OF_PERICENTER>166.7623</ARG_OF_PERICENTER><MEAN_ANOMALY>204.1859</MEAN_ANOMALY></meanElements><tleParameters><EPHEMERIS_TYPE>0</EPHEMERIS_TYPE><CLASSIFICATION_TYPE>U</CLASSIFICATION_TYPE><NORAD_CAT_ID>13553</NORAD_CAT_ID><ELEMENT_SET_NO>999</ELEMENT_SET_NO><REV_AT_EPOCH>12497</REV_AT_EPOCH><BSTAR>.23754E-4</BSTAR><MEAN_MOTION_DOT>.225E-5</MEAN_MOTION_DOT><MEAN_MOTION_DDOT>0</MEAN_MOTION_DDOT></tleParameters></data></segment></body></omm>
<omm id="CCSDS_OMM_VERS" version="2.0">
<header><CREATION_DATE/><ORIGINATOR/></header><body><segment><metadata><OBJECT_NAME>SL-3 R/B</OBJECT_NAME><OBJECT_ID>1983-010B</OBJECT_ID><CENTER_NAME>EARTH</CENTER_NAME><REF_FRAME>TEME</REF_FRAME><TIME_SYSTEM>UTC</TIME_SYSTEM><MEAN_ELEMENT_THEORY>SGP4</MEAN_ELEMENT_THEORY></metadata><data><meanElements><EPOCH>2022-06-04T20:54:24.059520</EPOCH><MEAN_MOTION>15.17343724</MEAN_MOTION><ECCENTRICITY>.0031443</ECCENTRICITY><INCLINATION>81.1148</INCLINATION><RA_OF_ASC_NODE>199.9998</RA_OF_ASC_NODE><ARG_OF_PERICENTER>46.5814</ARG_OF_PERICENTER><MEAN_ANOMALY>313.8023</MEAN_ANOMALY></meanElements><tleParameters><EPHEMERIS_TYPE>0</EPHEMERIS_TYPE><CLASSIFICATION_TYPE>U</CLASSIFICATION_TYPE><NORAD_CAT_ID>13819</NORAD_CAT_ID><ELEMENT_SET_NO>999</ELEMENT_SET_NO><REV_AT_EPOCH>14811</REV_AT_EPOCH><BSTAR>.89732E-4</BSTAR><MEAN_MOTION_DOT>.1838E-4</MEAN_MOTION_DOT><MEAN_MOTION_DDOT>0</MEAN_MOTION_DDOT></tleParameters></data></segment></body></omm>

</ndm>
