METEOR PRIRODA          
1 12585U 81065A   22155.92687500  .00002550  00000+0  10778-3 0  9990
2 12585  97.5835 160.6589 0013634 172.8546 187.2888 15.24105089232267
SL-3 R/B                
1 12904U 81103B   22155.83652561  .00000932  00000+0  60676-4 0  9992
2 12904  81.1756   2.6449 0026596 210.7689 149.1977 15.06735674765529
SL-3 R/B                
1 13068U 82013B   22156.17954922  .00001673  00000+0  10571-3 0  9990
2 13068  81.2042 310.0365 0020453  83.7072 276.6481 15.08368802196771
SL-3 R/B                
1 13154U 82039B   22155.86520259  .00000974  00000+0  76285-4 0  9999
2 13154  81.1824 341.5750 0040198 142.4043 218.0000 14.99484185175125
SL-3 R/B                
1 13403U 82079B   22155.86437699  .00000881  00000+0  54579-4 0  9994
2 13403  81.1656 350.1806 0035198  56.6602 303.7983 15.08210817169680
COSMOS 1408             
1 13552U 82092A   22156.07536897  .00004139  00000+0  12675-3 0  9998
2 13552  82.5724 281.1584 0027261 148.0040 212.2865 15.33119349174063
SL-14 R/B               
1 13553U 82092B   22155.79159748  .00000225  00000+0  23754-4 0  9996
2 13553  82.5680 344.1171 0021619 166.7623 204.1859 14.84409835124977
SL-3 R/B                
1 13819U 83010B   22155.87111180  .00001838  00000+0  89732-4 0  9998
2 13819  81.1148 199.9998 0031443  46.5814 313.8023 15.17343724148116
